IRIDIUM 159             
1 43578U 18061K   25028.36123271  .00000521  00000+0  17899-3 0  9999
2 43578  86.3942 267.6427 0001883  79.3546 280.7862 14.34215177341027
IRIDIUM 176             
1 43923U 19002B   25028.43086270  .00000846  00000+0  13022-3 0  9998
2 43923  86.6107 204.5082 0001093  73.4513 286.6824 14.72259731324981
IRIDIUM 168             
1 43924U 19002C   25028.42415300  .00000005  00000+0 -51976-5 0  9998
2 43924  86.3987 204.5703 0001790  88.4894 271.6507 14.34217497316622
IRIDIUM 169             
1 43926U 19002E   25028.06866772  .00000291  00000+0  88477-4 0  9994
2 43926  86.4200 236.2299 0002215 132.4264 227.7121 14.38602127317604
IRIDIUM 175             
1 43928U 19002G   25028.42549670  .00002333  00000+0  36580-3 0  9997
2 43928  86.1547 164.9934 0003182 104.2699 255.8871 14.72260337324976
